ORBCOMM FM20            
1 25416U 98046D   24226.38545295  .00004638  00000+0  16426-2 0  9993
2 25416  44.9923 197.3573 0001803 307.0477  53.0205 14.35582375360003
ORBCOMM FM15            
1 25418U 98046F   24226.38973465  .00005339  00000+0  18529-2 0  9994
2 25418  44.9952 196.6380 0002722 228.3758 131.6856 14.36400916359951
ORBCOMM FM14            
1 25419U 98046G   24226.33230744  .00006027  00000+0  20765-2 0  9996
2 25419  44.9943 195.8783 0001421 242.6548 117.4155 14.36609943359901
ORBCOMM FM13            
1 25420U 98046H   24226.35871509  .00004946  00000+0  17408-2 0  9998
2 25420  44.9956 201.1888 0003161 194.4813 165.5944 14.35805067358965
ORBCOMM FM22            
1 25476U 98053B   24226.53398872  .00005783  00000+0  20068-2 0  9990
2 25476  45.0075 281.7028 0001362 196.3227 163.7577 14.36306549353005
ORBCOMM FM23            
1 25477U 98053C   24226.54932277  .00004815  00000+0  16983-2 0  9991
2 25477  45.0083 287.1528 0001426 216.0502 144.0249 14.35742009353155
