<?xml version="1.0" encoding="UTF-8"?>
<ndm xmlns:xsi="http://www.w3.org/2001/XMLSchema-instance" xsi:noNamespaceSchemaLocation="https://sanaregistry.org/r/ndmxml_unqualified/ndmxml-2.0.0-master-2.0.xsd">
<omm id="CCSDS_OMM_VERS" version="2.0">
<header><CREATION_DATE/><ORIGINATOR/></header><body><segment><metadata><OBJECT_NAME>ORBCOMM FM20</OBJECT_NAME><OBJECT_ID>1998-046D</OBJECT_ID><CENTER_NAME>EARTH</CENTER_NAME><REF_FRAME>TEME</REF_FRAME><TIME_SYSTEM>UTC</TIME_SYSTEM><MEAN_ELEMENT_THEORY>SGP4</MEAN_ELEMENT_THEORY></metadata><data><meanElements><EPOCH>2024-08-13T09:15:03.134880</EPOCH><MEAN_MOTION>14.35582375</MEAN_MOTION><ECCENTRICITY>.0001803</ECCENTRICITY><INCLINATION>44.9923</INCLINATION><RA_OF_ASC_NODE>197.3573</RA_OF_ASC_NODE><ARG_OF_PERICENTER>307.0477</ARG_OF_PERICENTER><MEAN_ANOMALY>53.0205</MEAN_ANOMALY></meanElements><tleParameters><EPHEMERIS_TYPE>0</EPHEMERIS_TYPE><CLASSIFICATION_TYPE>U</CLASSIFICATION_TYPE><NORAD_CAT_ID>25416</NORAD_CAT_ID><ELEMENT_SET_NO>999</ELEMENT_SET_NO><REV_AT_EPOCH>36004</REV_AT_EPOCH><BSTAR>.16426E-2</BSTAR><MEAN_MOTION_DOT>.4638E-4</MEAN_MOTION_DOT><MEAN_MOTION_DDOT>0</MEAN_MOTION_DDOT></tleParameters></data></segment></body></omm>
<omm id="CCSDS_OMM_VERS" version="2.0">
<header><CREATION_DATE/><ORIGINATOR/></header><body><segment><metadata><OBJECT_NAME>ORBCOMM FM15</OBJECT_NAME><OBJECT_ID>1998-046F</OBJECT_ID><CENTER_NAME>EARTH</CENTER_NAME><REF_FRAME>TEME</REF_FRAME><TIME_SYSTEM>UTC</TIME_SYSTEM><MEAN_ELEMENT_THEORY>SGP4</MEAN_ELEMENT_THEORY></metadata><data><meanElements><EPOCH>2024-08-13T09:21:13.073760</EPOCH><MEAN_MOTION>14.36400916</MEAN_MOTION><ECCENTRICITY>.0002722</ECCENTRICITY><INCLINATION>44.9952</INCLINATION><RA_OF_ASC_NODE>196.6380</RA_OF_ASC_NODE><ARG_OF_PERICENTER>228.3758</ARG_OF_PERICENTER><MEAN_ANOMALY>131.6856</MEAN_ANOMALY></meanElements><tleParameters><EPHEMERIS_TYPE>0</EPHEMERIS_TYPE><CLASSIFICATION_TYPE>U</CLASSIFICATION_TYPE><NORAD_CAT_ID>25418</NORAD_CAT_ID><ELEMENT_SET_NO>999</ELEMENT_SET_NO><REV_AT_EPOCH>36012</REV_AT_EPOCH><BSTAR>.18529E-2</BSTAR><MEAN_MOTION_DOT>.5339E-4</MEAN_MOTION_DOT><MEAN_MOTION_DDOT>0</MEAN_MOTION_DDOT></tleParameters></data></segment></body></omm>
<omm id="CCSDS_OMM_VERS" version="2.0">
<header><CREATION_DATE/><ORIGINATOR/></header><body><segment><metadata><OBJECT_NAME>ORBCOMM FM14</OBJECT_NAME><OBJECT_ID>1998-046G</OBJECT_ID><CENTER_NAME>EARTH</CENTER_NAME><REF_FRAME>TEME</REF_FRAME><TIME_SYSTEM>UTC</TIME_SYSTEM><MEAN_ELEMENT_THEORY>SGP4</MEAN_ELEMENT_THEORY></metadata><data><meanElements><EPOCH>2024-08-13T07:58:31.362816</EPOCH><MEAN_MOTION>14.36609943</MEAN_MOTION><ECCENTRICITY>.0001421</ECCENTRICITY><INCLINATION>44.9943</INCLINATION><RA_OF_ASC_NODE>195.8783</RA_OF_ASC_NODE><ARG_OF_PERICENTER>242.6548</ARG_OF_PERICENTER><MEAN_ANOMALY>117.4155</MEAN_ANOMALY></meanElements><tleParameters><EPHEMERIS_TYPE>0</EPHEMERIS_TYPE><CLASSIFICATION_TYPE>U</CLASSIFICATION_TYPE><NORAD_CAT_ID>25419</NORAD_CAT_ID><ELEMENT_SET_NO>999</ELEMENT_SET_NO><REV_AT_EPOCH>35990</REV_AT_EPOCH><BSTAR>.20765E-2</BSTAR><MEAN_MOTION_DOT>.6027E-4</MEAN_MOTION_DOT><MEAN_MOTION_DDOT>0</MEAN_MOTION_DDOT></tleParameters></data></segment></body></omm>
<omm id="CCSDS_OMM_VERS" version="2.0">
<header><CREATION_DATE/><ORIGINATOR/></header><body><segment><metadata><OBJECT_NAME>ORBCOMM FM13</OBJECT_NAME><OBJECT_ID>1998-046H</OBJECT_ID><CENTER_NAME>EARTH</CENTER_NAME><REF_FRAME>TEME</REF_FRAME><TIME_SYSTEM>UTC</TIME_SYSTEM><MEAN_ELEMENT_THEORY>SGP4</MEAN_ELEMENT_THEORY></metadata><data><meanElements><EPOCH>2024-08-13T08:36:32.983776</EPOCH><MEAN_MOTION>14.35805067</MEAN_MOTION><ECCENTRICITY>.0003161</ECCENTRICITY><INCLINATION>44.9956</INCLINATION><RA_OF_ASC_NODE>201.1888</RA_OF_ASC_NODE><ARG_OF_PERICENTER>194.4813</ARG_OF_PERICENTER><MEAN_ANOMALY>165.5944</MEAN_ANOMALY></meanElements><tleParameters><EPHEMERIS_TYPE>0</EPHEMERIS_TYPE><CLASSIFICATION_TYPE>U</CLASSIFICATION_TYPE><NORAD_CAT_ID>25420</NORAD_CAT_ID><ELEMENT_SET_NO>999</ELEMENT_SET_NO><REV_AT_EPOCH>35896</REV_AT_EPOCH><BSTAR>.17408E-2</BSTAR><MEAN_MOTION_DOT>.4946E-4</MEAN_MOTION_DOT><MEAN_MOTION_DDOT>0</MEAN_MOTION_DDOT></tleParameters></data></segment></body></omm>
<omm id="CCSDS_OMM_VERS" version="2.0">
<header><CREATION_DATE/><ORIGINATOR/></header><body><segment><metadata><OBJECT_NAME>ORBCOMM FM22</OBJECT_NAME><OBJECT_ID>1998-053B</OBJECT_ID><CENTER_NAME>EARTH</CENTER_NAME><REF_FRAME>TEME</REF_FRAME><TIME_SYSTEM>UTC</TIME_SYSTEM><MEAN_ELEMENT_THEORY>SGP4</MEAN_ELEMENT_THEORY></metadata><data><meanElements><EPOCH>2024-08-13T12:48:56.625408</EPOCH><MEAN_MOTION>14.36306549</MEAN_MOTION><ECCENTRICITY>.0001362</ECCENTRICITY><INCLINATION>45.0075</INCLINATION><RA_OF_ASC_NODE>281.7028</RA_OF_ASC_NODE><ARG_OF_PERICENTER>196.3227</ARG_OF_PERICENTER><MEAN_ANOMALY>163.7577</MEAN_ANOMALY></meanElements><tleParameters><EPHEMERIS_TYPE>0</EPHEMERIS_TYPE><CLASSIFICATION_TYPE>U</CLASSIFICATION_TYPE><NORAD_CAT_ID>25476</NORAD_CAT_ID><ELEMENT_SET_NO>999</ELEMENT_SET_NO><REV_AT_EPOCH>35300</REV_AT_EPOCH><BSTAR>.20068E-2</BSTAR><MEAN_MOTION_DOT>.5783E-4</MEAN_MOTION_DOT><MEAN_MOTION_DDOT>0</MEAN_MOTION_DDOT></tleParameters></data></segment></body></omm>
<omm id="CCSDS_OMM_VERS" version="2.0">
<header><CREATION_DATE/><ORIGINATOR/></header><body><segment><metadata><OBJECT_NAME>ORBCOMM FM23</OBJECT_NAME><OBJECT_ID>1998-053C</OBJECT_ID><CENTER_NAME>EARTH</CENTER_NAME><REF_FRAME>TEME</REF_FRAME><TIME_SYSTEM>UTC</TIME_SYSTEM><MEAN_ELEMENT_THEORY>SGP4</MEAN_ELEMENT_THEORY></metadata><data><meanElements><EPOCH>2024-08-13T13:11:01.487328</EPOCH><MEAN_MOTION>14.35742009</MEAN_MOTION><ECCENTRICITY>.0001426</ECCENTRICITY><INCLINATION>45.0083</INCLINATION><RA_OF_ASC_NODE>287.1528</RA_OF_ASC_NODE><ARG_OF_PERICENTER>216.0502</ARG_OF_PERICENTER><MEAN_ANOMALY>144.0249</MEAN_ANOMALY></meanElements><tleParameters><EPHEMERIS_TYPE>0</EPHEMERIS_TYPE><CLASSIFICATION_TYPE>U</CLASSIFICATION_TYPE><NORAD_CAT_ID>25477</NORAD_CAT_ID><ELEMENT_SET_NO>999</ELEMENT_SET_NO><REV_AT_EPOCH>35315</REV_AT_EPOCH><BSTAR>.16983E-2</BSTAR><MEAN_MOTION_DOT>.4815E-4</MEAN_MOTION_DOT><MEAN_MOTION_DDOT>0</MEAN_MOTION_DDOT></tleParameters></data></segment></body></omm>

</ndm>
